STARLINK-35340          
1 66022U 25232T   25303.25002315 -.01878197  00000+0 -15406-1 0  9990
2 66022  53.1586 353.5226 0000912  97.4763 212.8262 15.73145085  2554
STARLINK-35394          
1 66023U 25232U   25303.25002315 -.01870626  00000+0 -15338-1 0  9994
2 66023  53.1586 353.5184 0001301 110.2730 201.9521 15.73135729  2550
STARLINK-35410          
1 66024U 25232V   25303.25002315 -.01868849  00000+0 -15323-1 0  9993
2 66024  53.1585 353.5106 0001350 107.1941 208.8684 15.73132308  2553
STARLINK-35280          
1 66025U 25232W   25303.25002315 -.01881135  00000+0 -15430-1 0  9996
2 66025  53.1586 353.5141 0001279 105.6730 208.4608 15.73146504  2491
STARLINK-34812          
1 66026U 25232X   25303.25002315 -.01879112  00000+0 -15414-1 0  9991
2 66026  53.1589 353.5064 0000961  93.8879 224.0834 15.73145465  2500
STARLINK-35341          
1 66027U 25232Y   25303.25002315 -.01874034  00000+0 -15371-1 0  9992
2 66027  53.1587 353.5023 0000852  99.4103 220.4830 15.73139057  2556
STARLINK-35339          
1 66028U 25232Z   25303.25002315 -.01876575  00000+0 -15391-1 0  9997
2 66028  53.1586 353.4988 0001067 125.3006 196.5021 15.73143757  2495
STARLINK-35399          
1 66029U 25232AA  25303.25002315 -.01877785  00000+0 -15402-1 0  9995
2 66029  53.1586 353.4949 0001081  96.1564 227.5648 15.73143932  2498
STARLINK-35431          
1 66030U 25232AB  25303.25002315 -.01882334  00000+0 -15443-1 0  9998
2 66030  53.1584 353.4900 0000841 105.7160 219.9177 15.73149275  2495
STARLINK-35326          
1 66031U 25232AC  25303.25002315 -.01873574  00000+0 -15369-1 0  9992
2 66031  53.1586 353.4869 0000739  94.4335 233.1285 15.73137912  2556
STARLINK-35311          
1 66032U 25232AD  25303.25002315 -.01873535  00000+0 -15364-1 0  9995
2 66032  53.1583 353.4821 0001095 100.3346 229.1408 15.73139663  2554
2025-234A               
1 66053U 25234A   25303.30466085  .00038543  00000+0  16780-2 0  9997
2 66053  97.4621   8.8854 0014279 247.0186 112.9544 15.22026618  1702
