CCSDS_OMM_VERS = 2.0
CREATION_DATE  = 
ORIGINATOR     = 

OBJECT_NAME    = STARLINK-35340
OBJECT_ID      = 2025-232T
CENTER_NAME    = EARTH
REF_FRAME      = TEME
TIME_SYSTEM    = UTC
MEAN_ELEMENT_THEORY = SGP/SGP4

EPOCH          = 2025-10-30T06:00:02.000160
MEAN_MOTION    = 15.73145085
ECCENTRICITY   = .00009127
INCLINATION    = 53.1586
RA_OF_ASC_NODE = 353.5226
ARG_OF_PERICENTER = 97.4763
MEAN_ANOMALY   = 212.8262

EPHEMERIS_TYPE = 0
CLASSIFICATION_TYPE = U
NORAD_CAT_ID   = 66022
ELEMENT_SET_NO = 999
REV_AT_EPOCH   = 255
BSTAR          = -.15406292E-1
MEAN_MOTION_DOT = -.1878197E-1
MEAN_MOTION_DDOT = 0

CCSDS_OMM_VERS = 2.0
CREATION_DATE  = 
ORIGINATOR     = 

OBJECT_NAME    = STARLINK-35394
OBJECT_ID      = 2025-232U
CENTER_NAME    = EARTH
REF_FRAME      = TEME
TIME_SYSTEM    = UTC
MEAN_ELEMENT_THEORY = SGP/SGP4

EPOCH          = 2025-10-30T06:00:02.000160
MEAN_MOTION    = 15.73135729
ECCENTRICITY   = .00013016
INCLINATION    = 53.1586
RA_OF_ASC_NODE = 353.5184
ARG_OF_PERICENTER = 110.2730
MEAN_ANOMALY   = 201.9521

EPHEMERIS_TYPE = 0
CLASSIFICATION_TYPE = U
NORAD_CAT_ID   = 66023
ELEMENT_SET_NO = 999
REV_AT_EPOCH   = 255
BSTAR          = -.15337814E-1
MEAN_MOTION_DOT = -.1870626E-1
MEAN_MOTION_DDOT = 0

CCSDS_OMM_VERS = 2.0
CREATION_DATE  = 
ORIGINATOR     = 

OBJECT_NAME    = STARLINK-35410
OBJECT_ID      = 2025-232V
CENTER_NAME    = EARTH
REF_FRAME      = TEME
TIME_SYSTEM    = UTC
MEAN_ELEMENT_THEORY = SGP/SGP4

EPOCH          = 2025-10-30T06:00:02.000160
MEAN_MOTION    = 15.73132308
ECCENTRICITY   = .00013507
INCLINATION    = 53.1585
RA_OF_ASC_NODE = 353.5106
ARG_OF_PERICENTER = 107.1941
MEAN_ANOMALY   = 208.8684

EPHEMERIS_TYPE = 0
CLASSIFICATION_TYPE = U
NORAD_CAT_ID   = 66024
ELEMENT_SET_NO = 999
REV_AT_EPOCH   = 255
BSTAR          = -.15322883E-1
MEAN_MOTION_DOT = -.1868849E-1
MEAN_MOTION_DDOT = 0

CCSDS_OMM_VERS = 2.0
CREATION_DATE  = 
ORIGINATOR     = 

OBJECT_NAME    = STARLINK-35280
OBJECT_ID      = 2025-232W
CENTER_NAME    = EARTH
REF_FRAME      = TEME
TIME_SYSTEM    = UTC
MEAN_ELEMENT_THEORY = SGP/SGP4

EPOCH          = 2025-10-30T06:00:02.000160
MEAN_MOTION    = 15.73146504
ECCENTRICITY   = .00012796
INCLINATION    = 53.1586
RA_OF_ASC_NODE = 353.5141
ARG_OF_PERICENTER = 105.6730
MEAN_ANOMALY   = 208.4608

EPHEMERIS_TYPE = 0
CLASSIFICATION_TYPE = U
NORAD_CAT_ID   = 66025
ELEMENT_SET_NO = 999
REV_AT_EPOCH   = 249
BSTAR          = -.15430245E-1
MEAN_MOTION_DOT = -.1881135E-1
MEAN_MOTION_DDOT = 0

CCSDS_OMM_VERS = 2.0
CREATION_DATE  = 
ORIGINATOR     = 

OBJECT_NAME    = STARLINK-34812
OBJECT_ID      = 2025-232X
CENTER_NAME    = EARTH
REF_FRAME      = TEME
TIME_SYSTEM    = UTC
MEAN_ELEMENT_THEORY = SGP/SGP4

EPOCH          = 2025-10-30T06:00:02.000160
MEAN_MOTION    = 15.73145465
ECCENTRICITY   = .00009619
INCLINATION    = 53.1589
RA_OF_ASC_NODE = 353.5064
ARG_OF_PERICENTER = 93.8879
MEAN_ANOMALY   = 224.0834

EPHEMERIS_TYPE = 0
CLASSIFICATION_TYPE = U
NORAD_CAT_ID   = 66026
ELEMENT_SET_NO = 999
REV_AT_EPOCH   = 250
BSTAR          = -.15414326E-1
MEAN_MOTION_DOT = -.1879112E-1
MEAN_MOTION_DDOT = 0

CCSDS_OMM_VERS = 2.0
CREATION_DATE  = 
ORIGINATOR     = 

OBJECT_NAME    = STARLINK-35341
OBJECT_ID      = 2025-232Y
CENTER_NAME    = EARTH
REF_FRAME      = TEME
TIME_SYSTEM    = UTC
MEAN_ELEMENT_THEORY = SGP/SGP4

EPOCH          = 2025-10-30T06:00:02.000160
MEAN_MOTION    = 15.73139057
ECCENTRICITY   = .00008524
INCLINATION    = 53.1587
RA_OF_ASC_NODE = 353.5023
ARG_OF_PERICENTER = 99.4103
MEAN_ANOMALY   = 220.4830

EPHEMERIS_TYPE = 0
CLASSIFICATION_TYPE = U
NORAD_CAT_ID   = 66027
ELEMENT_SET_NO = 999
REV_AT_EPOCH   = 255
BSTAR          = -.15371365E-1
MEAN_MOTION_DOT = -.1874034E-1
MEAN_MOTION_DDOT = 0

CCSDS_OMM_VERS = 2.0
CREATION_DATE  = 
ORIGINATOR     = 

OBJECT_NAME    = STARLINK-35339
OBJECT_ID      = 2025-232Z
CENTER_NAME    = EARTH
REF_FRAME      = TEME
TIME_SYSTEM    = UTC
MEAN_ELEMENT_THEORY = SGP/SGP4

EPOCH          = 2025-10-30T06:00:02.000160
MEAN_MOTION    = 15.73143757
ECCENTRICITY   = .00010673
INCLINATION    = 53.1586
RA_OF_ASC_NODE = 353.4988
ARG_OF_PERICENTER = 125.3006
MEAN_ANOMALY   = 196.5021

EPHEMERIS_TYPE = 0
CLASSIFICATION_TYPE = U
NORAD_CAT_ID   = 66028
ELEMENT_SET_NO = 999
REV_AT_EPOCH   = 249
BSTAR          = -.15390618E-1
MEAN_MOTION_DOT = -.1876575E-1
MEAN_MOTION_DDOT = 0

CCSDS_OMM_VERS = 2.0
CREATION_DATE  = 
ORIGINATOR     = 

OBJECT_NAME    = STARLINK-35399
OBJECT_ID      = 2025-232AA
CENTER_NAME    = EARTH
REF_FRAME      = TEME
TIME_SYSTEM    = UTC
MEAN_ELEMENT_THEORY = SGP/SGP4

EPOCH          = 2025-10-30T06:00:02.000160
MEAN_MOTION    = 15.73143932
ECCENTRICITY   = .00010813
INCLINATION    = 53.1586
RA_OF_ASC_NODE = 353.4949
ARG_OF_PERICENTER = 96.1564
MEAN_ANOMALY   = 227.5648

EPHEMERIS_TYPE = 0
CLASSIFICATION_TYPE = U
NORAD_CAT_ID   = 66029
ELEMENT_SET_NO = 999
REV_AT_EPOCH   = 249
BSTAR          = -.15401836E-1
MEAN_MOTION_DOT = -.1877785E-1
MEAN_MOTION_DDOT = 0

CCSDS_OMM_VERS = 2.0
CREATION_DATE  = 
ORIGINATOR     = 

OBJECT_NAME    = STARLINK-35431
OBJECT_ID      = 2025-232AB
CENTER_NAME    = EARTH
REF_FRAME      = TEME
TIME_SYSTEM    = UTC
MEAN_ELEMENT_THEORY = SGP/SGP4

EPOCH          = 2025-10-30T06:00:02.000160
MEAN_MOTION    = 15.73149275
ECCENTRICITY   = .00008419
INCLINATION    = 53.1584
RA_OF_ASC_NODE = 353.4900
ARG_OF_PERICENTER = 105.7160
MEAN_ANOMALY   = 219.9177

EPHEMERIS_TYPE = 0
CLASSIFICATION_TYPE = U
NORAD_CAT_ID   = 66030
ELEMENT_SET_NO = 999
REV_AT_EPOCH   = 249
BSTAR          = -.15443226E-1
MEAN_MOTION_DOT = -.1882334E-1
MEAN_MOTION_DDOT = 0

CCSDS_OMM_VERS = 2.0
CREATION_DATE  = 
ORIGINATOR     = 

OBJECT_NAME    = STARLINK-35326
OBJECT_ID      = 2025-232AC
CENTER_NAME    = EARTH
REF_FRAME      = TEME
TIME_SYSTEM    = UTC
MEAN_ELEMENT_THEORY = SGP/SGP4

EPOCH          = 2025-10-30T06:00:02.000160
MEAN_MOTION    = 15.73137912
ECCENTRICITY   = .00007394
INCLINATION    = 53.1586
RA_OF_ASC_NODE = 353.4869
ARG_OF_PERICENTER = 94.4335
MEAN_ANOMALY   = 233.1285

EPHEMERIS_TYPE = 0
CLASSIFICATION_TYPE = U
NORAD_CAT_ID   = 66031
ELEMENT_SET_NO = 999
REV_AT_EPOCH   = 255
BSTAR          = -.15368642E-1
MEAN_MOTION_DOT = -.1873574E-1
MEAN_MOTION_DDOT = 0

CCSDS_OMM_VERS = 2.0
CREATION_DATE  = 
ORIGINATOR     = 

OBJECT_NAME    = STARLINK-35311
OBJECT_ID      = 2025-232AD
CENTER_NAME    = EARTH
REF_FRAME      = TEME
TIME_SYSTEM    = UTC
MEAN_ELEMENT_THEORY = SGP/SGP4

EPOCH          = 2025-10-30T06:00:02.000160
MEAN_MOTION    = 15.73139663
ECCENTRICITY   = .00010954
INCLINATION    = 53.1583
RA_OF_ASC_NODE = 353.4821
ARG_OF_PERICENTER = 100.3346
MEAN_ANOMALY   = 229.1408

EPHEMERIS_TYPE = 0
CLASSIFICATION_TYPE = U
NORAD_CAT_ID   = 66032
ELEMENT_SET_NO = 999
REV_AT_EPOCH   = 255
BSTAR          = -.15364352E-1
MEAN_MOTION_DOT = -.1873535E-1
MEAN_MOTION_DDOT = 0

CCSDS_OMM_VERS = 2.0
CREATION_DATE  = 
ORIGINATOR     = 

OBJECT_NAME    = 2025-234A
OBJECT_ID      = 2025-234A
CENTER_NAME    = EARTH
REF_FRAME      = TEME
TIME_SYSTEM    = UTC
MEAN_ELEMENT_THEORY = SGP/SGP4

EPOCH          = 2025-10-30T07:18:42.697440
MEAN_MOTION    = 15.22026618
ECCENTRICITY   = .00142794
INCLINATION    = 97.4621
RA_OF_ASC_NODE = 8.8854
ARG_OF_PERICENTER = 247.0186
MEAN_ANOMALY   = 112.9544

EPHEMERIS_TYPE = 0
CLASSIFICATION_TYPE = U
NORAD_CAT_ID   = 66053
ELEMENT_SET_NO = 999
REV_AT_EPOCH   = 170
BSTAR          = .1677994E-2
MEAN_MOTION_DOT = .38543E-3
MEAN_MOTION_DDOT = 0

